[{"OBJECT_NAME":"STARLINK-37156","OBJECT_ID":"2026-055B","EPOCH":"2026-03-28T14:00:01.999872","MEAN_MOTION":15.9591783,"ECCENTRICITY":7.017e-5,"INCLINATION":53.158,"RA_OF_ASC_NODE":242.9616,"ARG_OF_PERICENTER":65.8515,"MEAN_ANOMALY":341.6836,"EPHEMERIS_TYPE":0,"CLASSIFICATION_TYPE":"U","NORAD_CAT_ID":68263,"ELEMENT_SET_NO":999,"REV_AT_EPOCH":267,"BSTAR":-0.0027583416,"MEAN_MOTION_DOT":-0.01153431,"MEAN_MOTION_DDOT":0.00041219935},{"OBJECT_NAME":"STARLINK-37163","OBJECT_ID":"2026-055C","EPOCH":"2026-03-28T14:00:01.999872","MEAN_MOTION":15.96144159,"ECCENTRICITY":7.022e-5,"INCLINATION":53.1579,"RA_OF_ASC_NODE":242.9481,"ARG_OF_PERICENTER":65.8642,"MEAN_ANOMALY":347.776,"EPHEMERIS_TYPE":0,"CLASSIFICATION_TYPE":"U","NORAD_CAT_ID":68264,"ELEMENT_SET_NO":999,"REV_AT_EPOCH":267,"BSTAR":-0.0028375311,"MEAN_MOTION_DOT":-0.01200704,"MEAN_MOTION_DDOT":0.00044443429},{"OBJECT_NAME":"STARLINK-37133","OBJECT_ID":"2026-055D","EPOCH":"2026-03-28T14:00:01.999872","MEAN_MOTION":15.96037951,"ECCENTRICITY":5.842e-5,"INCLINATION":53.1579,"RA_OF_ASC_NODE":242.9548,"ARG_OF_PERICENTER":70.8536,"MEAN_ANOMALY":339.8069,"EPHEMERIS_TYPE":0,"CLASSIFICATION_TYPE":"U","NORAD_CAT_ID":68265,"ELEMENT_SET_NO":999,"REV_AT_EPOCH":267,"BSTAR":-0.0028204372,"MEAN_MOTION_DOT":-0.01186736,"MEAN_MOTION_DDOT":0.00043460948},{"OBJECT_NAME":"STARLINK-37042","OBJECT_ID":"2026-055E","EPOCH":"2026-03-28T14:00:01.999872","MEAN_MOTION":15.96257356,"ECCENTRICITY":7.985e-5,"INCLINATION":53.1578,"RA_OF_ASC_NODE":242.9405,"ARG_OF_PERICENTER":65.4637,"MEAN_ANOMALY":352.0586,"EPHEMERIS_TYPE":0,"CLASSIFICATION_TYPE":"U","NORAD_CAT_ID":68266,"ELEMENT_SET_NO":999,"REV_AT_EPOCH":267,"BSTAR":-0.0028534006,"MEAN_MOTION_DOT":-0.01214744,"MEAN_MOTION_DDOT":0.00045445368},{"OBJECT_NAME":"STARLINK-37103","OBJECT_ID":"2026-055F","EPOCH":"2026-03-28T14:00:01.999872","MEAN_MOTION":15.9636069,"ECCENTRICITY":7.631e-5,"INCLINATION":53.158,"RA_OF_ASC_NODE":242.9334,"ARG_OF_PERICENTER":65.652,"MEAN_ANOMALY":355.208,"EPHEMERIS_TYPE":0,"CLASSIFICATION_TYPE":"U","NORAD_CAT_ID":68267,"ELEMENT_SET_NO":999,"REV_AT_EPOCH":267,"BSTAR":-0.0028472434,"MEAN_MOTION_DOT":-0.0121893,"MEAN_MOTION_DDOT":0.00045779056},{"OBJECT_NAME":"STARLINK-36999","OBJECT_ID":"2026-055G","EPOCH":"2026-03-28T14:00:01.999872","MEAN_MOTION":15.96464893,"ECCENTRICITY":6.874e-5,"INCLINATION":53.158,"RA_OF_ASC_NODE":242.9273,"ARG_OF_PERICENTER":69.7136,"MEAN_ANOMALY":354.1527,"EPHEMERIS_TYPE":0,"CLASSIFICATION_TYPE":"U","NORAD_CAT_ID":68268,"ELEMENT_SET_NO":999,"REV_AT_EPOCH":267,"BSTAR":-0.0028421468,"MEAN_MOTION_DOT":-0.0122364,"MEAN_MOTION_DDOT":0.00046150574},{"OBJECT_NAME":"STARLINK-36962","OBJECT_ID":"2026-055H","EPOCH":"2026-03-28T14:00:01.999872","MEAN_MOTION":15.96570588,"ECCENTRICITY":7.171e-5,"INCLINATION":53.158,"RA_OF_ASC_NODE":242.9205,"ARG_OF_PERICENTER":69.2477,"MEAN_ANOMALY":357.8062,"EPHEMERIS_TYPE":0,"CLASSIFICATION_TYPE":"U","NORAD_CAT_ID":68269,"ELEMENT_SET_NO":999,"REV_AT_EPOCH":267,"BSTAR":-0.0028383881,"MEAN_MOTION_DOT":-0.01229053,"MEAN_MOTION_DDOT":0.00046573204},{"OBJECT_NAME":"STARLINK-37028","OBJECT_ID":"2026-055J","EPOCH":"2026-03-28T14:00:01.999872","MEAN_MOTION":15.96779453,"ECCENTRICITY":8.247e-5,"INCLINATION":53.158,"RA_OF_ASC_NODE":242.8997,"ARG_OF_PERICENTER":69.1349,"MEAN_ANOMALY":7.7281,"EPHEMERIS_TYPE":0,"CLASSIFICATION_TYPE":"U","NORAD_CAT_ID":68270,"ELEMENT_SET_NO":999,"REV_AT_EPOCH":267,"BSTAR":-0.0028518293,"MEAN_MOTION_DOT":-0.01248879,"MEAN_MOTION_DDOT":0.00048052321},{"OBJECT_NAME":"STARLINK-37029","OBJECT_ID":"2026-055K","EPOCH":"2026-03-28T14:00:01.999872","MEAN_MOTION":15.96671488,"ECCENTRICITY":6.989e-5,"INCLINATION":53.158,"RA_OF_ASC_NODE":242.9069,"ARG_OF_PERICENTER":70.6253,"MEAN_ANOMALY":2.9634,"EPHEMERIS_TYPE":0,"CLASSIFICATION_TYPE":"U","NORAD_CAT_ID":68271,"ELEMENT_SET_NO":999,"REV_AT_EPOCH":267,"BSTAR":-0.0028598689,"MEAN_MOTION_DOT":-0.01245032,"MEAN_MOTION_DDOT":0.00047730143},{"OBJECT_NAME":"STARLINK-36974","OBJECT_ID":"2026-055L","EPOCH":"2026-03-28T14:00:01.999872","MEAN_MOTION":15.96900985,"ECCENTRICITY":7.589e-5,"INCLINATION":53.1579,"RA_OF_ASC_NODE":242.8915,"ARG_OF_PERICENTER":79.9072,"MEAN_ANOMALY":1.0213,"EPHEMERIS_TYPE":0,"CLASSIFICATION_TYPE":"U","NORAD_CAT_ID":68272,"ELEMENT_SET_NO":999,"REV_AT_EPOCH":267,"BSTAR":-0.002848471,"MEAN_MOTION_DOT":-0.01255682,"MEAN_MOTION_DDOT":0.00048590672},{"OBJECT_NAME":"STARLINK-37019","OBJECT_ID":"2026-055M","EPOCH":"2026-03-28T14:00:01.999872","MEAN_MOTION":15.97004267,"ECCENTRICITY":7.992e-5,"INCLINATION":53.1579,"RA_OF_ASC_NODE":242.885,"ARG_OF_PERICENTER":69.8048,"MEAN_ANOMALY":13.9509,"EPHEMERIS_TYPE":0,"CLASSIFICATION_TYPE":"U","NORAD_CAT_ID":68273,"ELEMENT_SET_NO":999,"REV_AT_EPOCH":267,"BSTAR":-0.002830402,"MEAN_MOTION_DOT":-0.01254845,"MEAN_MOTION_DDOT":0.00048583602},{"OBJECT_NAME":"STARLINK-37129","OBJECT_ID":"2026-055N","EPOCH":"2026-03-28T14:00:01.999872","MEAN_MOTION":15.97114645,"ECCENTRICITY":8.039e-5,"INCLINATION":53.1577,"RA_OF_ASC_NODE":242.8786,"ARG_OF_PERICENTER":69.1769,"MEAN_ANOMALY":17.8455,"EPHEMERIS_TYPE":0,"CLASSIFICATION_TYPE":"U","NORAD_CAT_ID":68274,"ELEMENT_SET_NO":999,"REV_AT_EPOCH":267,"BSTAR":-0.0028165475,"MEAN_MOTION_DOT":-0.01256307,"MEAN_MOTION_DDOT":0.00048742328},{"OBJECT_NAME":"STARLINK-37123","OBJECT_ID":"2026-055P","EPOCH":"2026-03-28T14:00:01.999872","MEAN_MOTION":15.97223595,"ECCENTRICITY":8.815e-5,"INCLINATION":53.158,"RA_OF_ASC_NODE":242.873,"ARG_OF_PERICENTER":68.947,"MEAN_ANOMALY":20.7812,"EPHEMERIS_TYPE":0,"CLASSIFICATION_TYPE":"U","NORAD_CAT_ID":68275,"ELEMENT_SET_NO":999,"REV_AT_EPOCH":267,"BSTAR":-0.002810976,"MEAN_MOTION_DOT":-0.01261332,"MEAN_MOTION_DDOT":0.00049153307},{"OBJECT_NAME":"STARLINK-37125","OBJECT_ID":"2026-055Q","EPOCH":"2026-03-28T14:00:01.999872","MEAN_MOTION":15.97344678,"ECCENTRICITY":8.761e-5,"INCLINATION":53.1579,"RA_OF_ASC_NODE":242.865,"ARG_OF_PERICENTER":64.2513,"MEAN_ANOMALY":29.3731,"EPHEMERIS_TYPE":0,"CLASSIFICATION_TYPE":"U","NORAD_CAT_ID":68276,"ELEMENT_SET_NO":999,"REV_AT_EPOCH":267,"BSTAR":-0.0027940402,"MEAN_MOTION_DOT":-0.01262142,"MEAN_MOTION_DDOT":0.00049272679},{"OBJECT_NAME":"STARLINK-36989","OBJECT_ID":"2026-055R","EPOCH":"2026-03-28T14:00:01.999872","MEAN_MOTION":15.97696608,"ECCENTRICITY":7.285e-5,"INCLINATION":53.1579,"RA_OF_ASC_NODE":242.8444,"ARG_OF_PERICENTER":76.1707,"MEAN_ANOMALY":27.418,"EPHEMERIS_TYPE":0,"CLASSIFICATION_TYPE":"U","NORAD_CAT_ID":68277,"ELEMENT_SET_NO":999,"REV_AT_EPOCH":267,"BSTAR":-0.0027518197,"MEAN_MOTION_DOT":-0.01267478,"MEAN_MOTION_DDOT":0.00049835099},{"OBJECT_NAME":"STARLINK-36982","OBJECT_ID":"2026-055S","EPOCH":"2026-03-28T14:00:01.999872","MEAN_MOTION":15.97583556,"ECCENTRICITY":7.785e-5,"INCLINATION":53.1578,"RA_OF_ASC_NODE":242.8514,"ARG_OF_PERICENTER":73.3127,"MEAN_ANOMALY":27.1885,"EPHEMERIS_TYPE":0,"CLASSIFICATION_TYPE":"U","NORAD_CAT_ID":68278,"ELEMENT_SET_NO":999,"REV_AT_EPOCH":267,"BSTAR":-0.0027721871,"MEAN_MOTION_DOT":-0.01268859,"MEAN_MOTION_DDOT":0.00049875056}]
