STARLINK-37156          
1 68263U 26055B   26087.58335648 -.01153431  41220-3 -27583-2 0  9997
2 68263  53.1580 242.9616 0000701  65.8515 341.6836 15.95917830  2671
STARLINK-37163          
1 68264U 26055C   26087.58335648 -.01200704  44443-3 -28375-2 0  9994
2 68264  53.1579 242.9481 0000702  65.8642 347.7760 15.96144159  2672
STARLINK-37133          
1 68265U 26055D   26087.58335648 -.01186736  43461-3 -28204-2 0  9993
2 68265  53.1579 242.9548 0000584  70.8536 339.8069 15.96037951  2678
STARLINK-37042          
1 68266U 26055E   26087.58335648 -.01214744  45445-3 -28534-2 0  9995
2 68266  53.1578 242.9405 0000798  65.4637 352.0586 15.96257356  2673
STARLINK-37103          
1 68267U 26055F   26087.58335648 -.01218930  45779-3 -28472-2 0  9998
2 68267  53.1580 242.9334 0000763  65.6520 355.2080 15.96360690  2673
STARLINK-36999          
1 68268U 26055G   26087.58335648 -.01223640  46151-3 -28421-2 0  9992
2 68268  53.1580 242.9273 0000687  69.7136 354.1527 15.96464893  2673
STARLINK-36962          
1 68269U 26055H   26087.58335648 -.01229053  46573-3 -28384-2 0  9993
2 68269  53.1580 242.9205 0000717  69.2477 357.8062 15.96570588  2679
STARLINK-37028          
1 68270U 26055J   26087.58335648 -.01248879  48052-3 -28518-2 0  9995
2 68270  53.1580 242.8997 0000824  69.1349   7.7281 15.96779453  2670
STARLINK-37029          
1 68271U 26055K   26087.58335648 -.01245032  47730-3 -28599-2 0  9995
2 68271  53.1580 242.9069 0000698  70.6253   2.9634 15.96671488  2670
STARLINK-36974          
1 68272U 26055L   26087.58335648 -.01255682  48591-3 -28485-2 0  9998
2 68272  53.1579 242.8915 0000758  79.9072   1.0213 15.96900985  2676
STARLINK-37019          
1 68273U 26055M   26087.58335648 -.01254845  48584-3 -28304-2 0  9991
2 68273  53.1579 242.8850 0000799  69.8048  13.9509 15.97004267  2670
STARLINK-37129          
1 68274U 26055N   26087.58335648 -.01256307  48742-3 -28165-2 0  9998
2 68274  53.1577 242.8786 0000803  69.1769  17.8455 15.97114645  2671
STARLINK-37123          
1 68275U 26055P   26087.58335648 -.01261332  49153-3 -28110-2 0  9990
2 68275  53.1580 242.8730 0000881  68.9470  20.7812 15.97223595  2672
STARLINK-37125          
1 68276U 26055Q   26087.58335648 -.01262142  49273-3 -27940-2 0  9994
2 68276  53.1579 242.8650 0000876  64.2513  29.3731 15.97344678  2674
STARLINK-36989          
1 68277U 26055R   26087.58335648 -.01267478  49835-3 -27518-2 0  9997
2 68277  53.1579 242.8444 0000728  76.1707  27.4180 15.97696608  2679
STARLINK-36982          
1 68278U 26055S   26087.58335648 -.01268859  49875-3 -27722-2 0  9993
2 68278  53.1578 242.8514 0000778  73.3127  27.1885 15.97583556  2673
